NAVSTAR 68 (USA 242)    
1 39166U 13023A   26032.07150058  .00000009  00000+0  00000+0 0  9990
2 39166  54.6097 274.5186 0140598  49.3774 311.9129  2.00564316 93153
INSAT-3D                
1 39216U 13038B   26032.94416344 -.00000350  00000+0  00000+0 0  9991
2 39216   1.5770  84.3556 0001932 197.4187 319.7381  1.00268728 45720
NAVSTAR 69 (USA 248)    
1 39533U 14008A   26032.56677334 -.00000014  00000+0  00000+0 0  9994
2 39533  53.6365 154.8527 0081129 227.1940 132.0847  2.00551111 86961
NAVSTAR 70 (USA 251)    
1 39741U 14026A   26032.34851758 -.00000099  00000+0  00000+0 0  9998
2 39741  56.5617 336.8083 0040035 322.5575  37.1630  2.00570784 85813
NAVSTAR 71 (USA 256)    
1 40105U 14045A   26028.94406219 -.00000031  00000+0  00000+0 0  9990
2 40105  55.2574  94.0141 0031401 120.4917 239.8704  2.00575432 83284
GSAT0201 (GALILEO 5)    
1 40128U 14050A   26028.81965919 -.00000008  00000+0  00000+0 0  9998
2 40128  49.0237 279.1402 1653059 174.0427 188.2485  1.85519698 75731
GSAT0202 (GALILEO 6)    
1 40129U 14050B   26027.99775515 -.00000008  00000+0  00000+0 0  9998
2 40129  49.0402 278.2580 1653700 174.7431 187.2862  1.85520465 77888
NAVSTAR 72 (USA 258)    
1 40294U 14068A   26032.31410562 -.00000054  00000+0  00000+0 0  9991
2 40294  56.8964  36.1908 0061598  68.2269 292.4584  2.00567806 82488
COSMOS 2501 [GLONASS-K] 
1 40315U 14075A   26031.74617669  .00000041  00000+0  00000+0 0  9991
2 40315  63.6169 195.0921 0020314 204.2500 155.6308  2.13101146 86940
NAVSTAR 73 (USA 260)    
1 40534U 15013A   26032.44442404  .00000037  00000+0  00000+0 0  9993
2 40534  53.1916 209.7899 0108461  39.4647 321.3062  2.00559429 79100
GSAT0203 (GALILEO 7)    
1 40544U 15017A   26029.77887734 -.00000096  00000+0  00000+0 0  9995
2 40544  56.8330 345.3711 0005883 286.7119  73.2094  1.70475545 66843
GSAT0204 (GALILEO 8)    
1 40545U 15017B   26029.44785682 -.00000094  00000+0  00000+0 0  9997
2 40545  56.8397 345.3980 0005348 277.5490  82.3770  1.70475161 29880
NAVSTAR 74 (USA 262)    
1 40730U 15033A   26032.60538877  .00000007  00000+0  00000+0 0  9998
2 40730  54.0879 272.6763 0113586  28.2143 332.4728  2.00563026 77272
METEOSAT-11 (MSG-4)     
1 40732U 15034A   26032.92050329  .00000053  00000+0  00000+0 0  9998
2 40732   2.8636  71.8153 0001054 235.8569 165.5213  1.00268094  5868
GSAT0205 (GALILEO 9)    
1 40889U 15045A   26003.99326098  .00000062  00000+0  00000+0 0  9997
2 40889  54.9968 226.1424 0006353  44.5343 315.6036  1.70473089 64219
GSAT0206 (GALILEO 10)   
1 40890U 15045B   26030.61013385  .00000075  00000+0  00000+0 0  9994
2 40890  54.9888 225.4008 0004297  48.3894 311.6781  1.70473330 64694
