[{"OBJECT_NAME":"GPS BIIF-4","OBJECT_ID":"2013-023A","EPOCH":"2026-02-01T01:42:57.650112","MEAN_MOTION":2.00564316,"ECCENTRICITY":0.01405985,"INCLINATION":54.6097,"RA_OF_ASC_NODE":274.5186,"ARG_OF_PERICENTER":49.3774,"MEAN_ANOMALY":311.9129,"EPHEMERIS_TYPE":0,"CLASSIFICATION_TYPE":"U","NORAD_CAT_ID":39166,"ELEMENT_SET_NO":999,"REV_AT_EPOCH":9315,"BSTAR":0,"MEAN_MOTION_DOT":9.0e-8,"MEAN_MOTION_DDOT":0},{"OBJECT_NAME":"INSAT-3D","OBJECT_ID":"2013-038B","EPOCH":"2026-02-01T22:39:35.721216","MEAN_MOTION":1.00268728,"ECCENTRICITY":0.00019327,"INCLINATION":1.577,"RA_OF_ASC_NODE":84.3556,"ARG_OF_PERICENTER":197.4187,"MEAN_ANOMALY":319.7381,"EPHEMERIS_TYPE":0,"CLASSIFICATION_TYPE":"U","NORAD_CAT_ID":39216,"ELEMENT_SET_NO":999,"REV_AT_EPOCH":4572,"BSTAR":0,"MEAN_MOTION_DOT":-3.5e-6,"MEAN_MOTION_DDOT":0},{"OBJECT_NAME":"GPS BIIF-5","OBJECT_ID":"2014-008A","EPOCH":"2026-02-01T13:36:09.216576","MEAN_MOTION":2.00551111,"ECCENTRICITY":0.00811292,"INCLINATION":53.6365,"RA_OF_ASC_NODE":154.8527,"ARG_OF_PERICENTER":227.194,"MEAN_ANOMALY":132.0847,"EPHEMERIS_TYPE":0,"CLASSIFICATION_TYPE":"U","NORAD_CAT_ID":39533,"ELEMENT_SET_NO":999,"REV_AT_EPOCH":8696,"BSTAR":0,"MEAN_MOTION_DOT":-1.4e-7,"MEAN_MOTION_DDOT":0},{"OBJECT_NAME":"GPS BIIF-6","OBJECT_ID":"2014-026A","EPOCH":"2026-02-01T08:21:51.918912","MEAN_MOTION":2.00570784,"ECCENTRICITY":0.00400356,"INCLINATION":56.5617,"RA_OF_ASC_NODE":336.8083,"ARG_OF_PERICENTER":322.5575,"MEAN_ANOMALY":37.163,"EPHEMERIS_TYPE":0,"CLASSIFICATION_TYPE":"U","NORAD_CAT_ID":39741,"ELEMENT_SET_NO":999,"REV_AT_EPOCH":8581,"BSTAR":0,"MEAN_MOTION_DOT":-9.9e-7,"MEAN_MOTION_DDOT":0},{"OBJECT_NAME":"GPS BIIF-7","OBJECT_ID":"2014-045A","EPOCH":"2026-01-28T22:39:26.973216","MEAN_MOTION":2.00575432,"ECCENTRICITY":0.00314011,"INCLINATION":55.2574,"RA_OF_ASC_NODE":94.0141,"ARG_OF_PERICENTER":120.4917,"MEAN_ANOMALY":239.8704,"EPHEMERIS_TYPE":0,"CLASSIFICATION_TYPE":"U","NORAD_CAT_ID":40105,"ELEMENT_SET_NO":999,"REV_AT_EPOCH":8328,"BSTAR":0,"MEAN_MOTION_DOT":-3.1e-7,"MEAN_MOTION_DDOT":0},{"OBJECT_NAME":"GSAT0201 (GALILEO 5)","OBJECT_ID":"2014-050A","EPOCH":"2026-01-28T19:40:18.554016","MEAN_MOTION":1.85519698,"ECCENTRICITY":0.16530595,"INCLINATION":49.0237,"RA_OF_ASC_NODE":279.1402,"ARG_OF_PERICENTER":174.0427,"MEAN_ANOMALY":188.2485,"EPHEMERIS_TYPE":0,"CLASSIFICATION_TYPE":"U","NORAD_CAT_ID":40128,"ELEMENT_SET_NO":999,"REV_AT_EPOCH":7573,"BSTAR":0,"MEAN_MOTION_DOT":-8.0e-8,"MEAN_MOTION_DDOT":0},{"OBJECT_NAME":"GSAT0202 (GALILEO 6)","OBJECT_ID":"2014-050B","EPOCH":"2026-01-27T23:56:46.044960","MEAN_MOTION":1.85520465,"ECCENTRICITY":0.16537004,"INCLINATION":49.0402,"RA_OF_ASC_NODE":278.258,"ARG_OF_PERICENTER":174.7431,"MEAN_ANOMALY":187.2862,"EPHEMERIS_TYPE":0,"CLASSIFICATION_TYPE":"U","NORAD_CAT_ID":40129,"ELEMENT_SET_NO":999,"REV_AT_EPOCH":7788,"BSTAR":0,"MEAN_MOTION_DOT":-8.0e-8,"MEAN_MOTION_DDOT":0},{"OBJECT_NAME":"GPS BIIF-8","OBJECT_ID":"2014-068A","EPOCH":"2026-02-01T07:32:18.725568","MEAN_MOTION":2.00567806,"ECCENTRICITY":0.00615982,"INCLINATION":56.8964,"RA_OF_ASC_NODE":36.1908,"ARG_OF_PERICENTER":68.2269,"MEAN_ANOMALY":292.4584,"EPHEMERIS_TYPE":0,"CLASSIFICATION_TYPE":"U","NORAD_CAT_ID":40294,"ELEMENT_SET_NO":999,"REV_AT_EPOCH":8248,"BSTAR":0,"MEAN_MOTION_DOT":-5.4e-7,"MEAN_MOTION_DDOT":0},{"OBJECT_NAME":"GLONASS-K 2","OBJECT_ID":"2014-075A","EPOCH":"2026-01-31T17:54:29.666016","MEAN_MOTION":2.13101146,"ECCENTRICITY":0.00203143,"INCLINATION":63.6169,"RA_OF_ASC_NODE":195.0921,"ARG_OF_PERICENTER":204.25,"MEAN_ANOMALY":155.6308,"EPHEMERIS_TYPE":0,"CLASSIFICATION_TYPE":"U","NORAD_CAT_ID":40315,"ELEMENT_SET_NO":999,"REV_AT_EPOCH":8694,"BSTAR":0,"MEAN_MOTION_DOT":4.1e-7,"MEAN_MOTION_DDOT":0},{"OBJECT_NAME":"GPS BIIF-9","OBJECT_ID":"2015-013A","EPOCH":"2026-02-01T10:39:58.237056","MEAN_MOTION":2.00559429,"ECCENTRICITY":0.01084615,"INCLINATION":53.1916,"RA_OF_ASC_NODE":209.7899,"ARG_OF_PERICENTER":39.4647,"MEAN_ANOMALY":321.3062,"EPHEMERIS_TYPE":0,"CLASSIFICATION_TYPE":"U","NORAD_CAT_ID":40534,"ELEMENT_SET_NO":999,"REV_AT_EPOCH":7910,"BSTAR":0,"MEAN_MOTION_DOT":3.7e-7,"MEAN_MOTION_DDOT":0},{"OBJECT_NAME":"GSAT0203 (GALILEO 7)","OBJECT_ID":"2015-017A","EPOCH":"2026-01-29T18:41:35.002176","MEAN_MOTION":1.70475545,"ECCENTRICITY":0.00058834,"INCLINATION":56.833,"RA_OF_ASC_NODE":345.3711,"ARG_OF_PERICENTER":286.7119,"MEAN_ANOMALY":73.2094,"EPHEMERIS_TYPE":0,"CLASSIFICATION_TYPE":"U","NORAD_CAT_ID":40544,"ELEMENT_SET_NO":999,"REV_AT_EPOCH":6684,"BSTAR":0,"MEAN_MOTION_DOT":-9.6e-7,"MEAN_MOTION_DDOT":0},{"OBJECT_NAME":"GSAT0204 (GALILEO 8)","OBJECT_ID":"2015-017B","EPOCH":"2026-01-29T10:44:54.829248","MEAN_MOTION":1.70475161,"ECCENTRICITY":0.00053484,"INCLINATION":56.8397,"RA_OF_ASC_NODE":345.398,"ARG_OF_PERICENTER":277.549,"MEAN_ANOMALY":82.377,"EPHEMERIS_TYPE":0,"CLASSIFICATION_TYPE":"U","NORAD_CAT_ID":40545,"ELEMENT_SET_NO":999,"REV_AT_EPOCH":2988,"BSTAR":0,"MEAN_MOTION_DOT":-9.4e-7,"MEAN_MOTION_DDOT":0},{"OBJECT_NAME":"GPS BIIF-10","OBJECT_ID":"2015-033A","EPOCH":"2026-02-01T14:31:45.589728","MEAN_MOTION":2.00563026,"ECCENTRICITY":0.01135865,"INCLINATION":54.0879,"RA_OF_ASC_NODE":272.6763,"ARG_OF_PERICENTER":28.2143,"MEAN_ANOMALY":332.4728,"EPHEMERIS_TYPE":0,"CLASSIFICATION_TYPE":"U","NORAD_CAT_ID":40730,"ELEMENT_SET_NO":999,"REV_AT_EPOCH":7727,"BSTAR":0,"MEAN_MOTION_DOT":7.0e-8,"MEAN_MOTION_DDOT":0},{"OBJECT_NAME":"METEOSAT-11 (MSG-4)","OBJECT_ID":"2015-034A","EPOCH":"2026-02-01T22:05:31.484256","MEAN_MOTION":1.00268094,"ECCENTRICITY":0.00010542,"INCLINATION":2.8636,"RA_OF_ASC_NODE":71.8153,"ARG_OF_PERICENTER":235.8569,"MEAN_ANOMALY":165.5213,"EPHEMERIS_TYPE":0,"CLASSIFICATION_TYPE":"U","NORAD_CAT_ID":40732,"ELEMENT_SET_NO":999,"REV_AT_EPOCH":586,"BSTAR":0,"MEAN_MOTION_DOT":5.3e-7,"MEAN_MOTION_DDOT":0},{"OBJECT_NAME":"GSAT0205 (GALILEO 9)","OBJECT_ID":"2015-045A","EPOCH":"2026-01-03T23:50:17.748672","MEAN_MOTION":1.70473089,"ECCENTRICITY":0.00063531,"INCLINATION":54.9968,"RA_OF_ASC_NODE":226.1424,"ARG_OF_PERICENTER":44.5343,"MEAN_ANOMALY":315.6036,"EPHEMERIS_TYPE":0,"CLASSIFICATION_TYPE":"U","NORAD_CAT_ID":40889,"ELEMENT_SET_NO":999,"REV_AT_EPOCH":6421,"BSTAR":0,"MEAN_MOTION_DOT":6.2e-7,"MEAN_MOTION_DDOT":0},{"OBJECT_NAME":"GSAT0206 (GALILEO 10)","OBJECT_ID":"2015-045B","EPOCH":"2026-01-30T14:38:35.564640","MEAN_MOTION":1.7047333,"ECCENTRICITY":0.00042971,"INCLINATION":54.9888,"RA_OF_ASC_NODE":225.4008,"ARG_OF_PERICENTER":48.3894,"MEAN_ANOMALY":311.6781,"EPHEMERIS_TYPE":0,"CLASSIFICATION_TYPE":"U","NORAD_CAT_ID":40890,"ELEMENT_SET_NO":999,"REV_AT_EPOCH":6469,"BSTAR":0,"MEAN_MOTION_DOT":7.5e-7,"MEAN_MOTION_DDOT":0}]
